NORAD_CAT_ID,OBJECT_NAME,OBJECT_TYPE,EPOCH,MEAN_MOTION,ECCENTRICITY,INCLINATION,RA_OF_ASC_NODE,ARG_OF_PERICENTER,MEAN_ANOMALY,BSTAR,MEAN_MOTION_DOT,MEAN_MOTION_DDOT,TLE_LINE0,TLE_LINE1,TLE_LINE2,SEMIMAJOR_AXIS,PERIOD,APOGEE,PERIGEE,DECAYED
50830.0,STARLINK-3278,PAYLOAD,2022-01-11 20:00:01,15.94784343,0.0055628,53.2175,175.576,179.7583,216.7151,-0.0019833,-0.00916784,0.0002689,0 STARLINK-3278,1 50830U 22001AD  22011.83334491 -.00916784  26890-3 -19833-2 0  9993,2 50830  53.2175 175.5760 0055628 179.7583 216.7151 15.94784343  2078,6667.052,90.294,326.005,251.83,0.0
50830.0,STARLINK-3278,PAYLOAD,2022-01-12 06:00:00,15.94034916,0.0052202,53.2174,173.4464,181.3771,88.1165,-0.0020293,-0.00882216,0.00024901,0 STARLINK-3278,1 50830U 22001AD  22012.25001157 -.00882216  24901-3 -20293-2 0  9995,2 50830  53.2174 173.4464 0052202 181.3771  88.1165 15.94034916  2135,6669.142,90.337,325.821,256.193,0.0
50830.0,STARLINK-3278,PAYLOAD,2022-01-12 14:00:01,15.9346855,0.0048912,53.2177,171.7469,183.009,200.0951,-0.0022272,-0.00921979,0.00026809,0 STARLINK-3278,1 50830U 22001AD  22012.58334491 -.00921979  26809-3 -22272-2 0  9999,2 50830  53.2177 171.7469 0048912 183.0090 200.0951 15.93468550  1434,6670.722,90.369,325.215,259.959,0.0
50830.0,STARLINK-3278,PAYLOAD,2022-01-12 16:00:00,15.93298604,0.0048225,53.2175,171.3226,183.0586,318.3478,-0.0021354,-0.00873194,0.00024265,0 STARLINK-3278,1 50830U 22001AD  22012.66667824 -.00873194  24265-3 -21354-2 0  9996,2 50830  53.2175 171.3226 0048225 183.0586 318.3478 15.93298604  2200,6671.196,90.379,325.233,260.89,0.0
50830.0,STARLINK-3278,PAYLOAD,2022-01-12 22:00:00,15.92859138,0.0046206,53.2173,170.0493,184.954,311.0711,-0.002207,-0.00872553,0.00024128,0 STARLINK-3278,1 50830U 22001AD  22012.91667824 -.00872553  24128-3 -22070-2 0  9996,2 50830  53.2173 170.0493 0046206 184.9540 311.0711 15.92859138  2245,6672.4230000000025,90.403,325.119,263.458,0.0
50830.0,STARLINK-3278,PAYLOAD,2022-01-13 14:00:01,15.91710696,0.0040634,53.2174,166.6549,187.5198,172.2136,-0.0025419,-0.00921835,0.00026343,0 STARLINK-3278,1 50830U 22001AD  22013.58334491 -.00921835  26343-3 -25419-2 0  9990,2 50830  53.2174 166.6549 0040634 187.5198 172.2136 15.91710696  2349,6675.632,90.469,324.623,270.372,0.0
50830.0,STARLINK-3278,PAYLOAD,2022-01-13 20:00:01,15.91268671,0.0038356,53.2174,165.3853,190.4401,162.4607,-0.0026108,-0.00916917,0.00025978,0 STARLINK-3278,1 50830U 22001AD  22013.83334491 -.00916917  25978-3 -26108-2 0  9992,2 50830  53.2174 165.3853 0038356 190.4401 162.4607 15.91268671  2380,6676.869000000002,90.494,324.343,273.124,0.0
50830.0,STARLINK-3278,PAYLOAD,2022-01-13 22:00:00,15.91111024,0.0037658,53.2172,164.9616,190.7145,279.8244,-0.002568,-0.00892361,0.00024698,0 STARLINK-3278,1 50830U 22001AD  22013.91667824 -.00892361  24698-3 -25680-2 0  9998,2 50830  53.2172 164.9616 0037658 190.7145 279.8244 15.91111024  1649,6677.31,90.503,324.32,274.029,0.0
50830.0,STARLINK-3278,PAYLOAD,2022-01-14 06:00:00,15.90513675,0.0034783,53.2175,163.2663,193.1643,27.4778,-0.0026054,-0.00869028,0.00023412,0 STARLINK-3278,1 50830U 22001AD  22014.25001157 -.00869028  23412-3 -26054-2 0  9990,2 50830  53.2175 163.2663 0034783 193.1643  27.4778 15.90513675  2458,6678.981,90.537,324.078,277.615,0.0
50830.0,STARLINK-3278,PAYLOAD,2022-01-14 14:00:01,15.89949843,0.0031967,53.2176,161.5761,195.3847,134.6426,-0.0028506,-0.00914911,0.0002555,0 STARLINK-3278,1 50830U 22001AD  22014.58334491 -.00914911  25550-3 -28506-2 0  9997,2 50830  53.2176 161.5761 0031967 195.3847 134.6426 15.89949843  1751,6680.56,90.569,323.781,281.07,0.0
50830.0,STARLINK-3278,PAYLOAD,2022-01-14 22:00:00,15.89363648,0.0029453,53.2171,159.8869,198.1252,240.5909,-0.002954,-0.00913457,0.00025335,0 STARLINK-3278,1 50830U 22001AD  22014.91667824 -.00913457  25335-3 -29540-2 0  9997,2 50830  53.2171 159.8869 0029453 198.1252 240.5909 15.89363648  2569,6682.203,90.602,323.749,284.387,0.0
50830.0,STARLINK-3278,PAYLOAD,2022-01-15 04:00:00,15.88924076,0.0027076,53.2174,158.6186,201.0666,228.7059,-0.0030399,-0.00913618,0.00025238,0 STARLINK-3278,1 50830U 22001AD  22015.16667824 -.00913618  25238-3 -30399-2 0  9990,2 50830  53.2174 158.6186 0027076 201.0666 228.7059 15.88924076  2609,6683.435,90.627,323.396,287.204,0.0
50830.0,STARLINK-3278,PAYLOAD,2022-01-15 14:00:01,15.88184436,0.0024187,53.2175,156.5103,203.566,90.4865,-0.0031255,-0.00899049,0.00024347,0 STARLINK-3278,1 50830U 22001AD  22015.58335648 -.00899049  24347-3 -31255-2 0  9995,2 50830  53.2175 156.5103 0024187 203.5660  90.4865 15.88184436  2660,6685.51,90.67,323.545,291.205,0.0
50830.0,STARLINK-3278,PAYLOAD,2022-01-15 22:00:01,15.87610698,0.0021422,53.2171,154.825,208.758,191.8671,-0.0033229,-0.0092344,0.00025417,0 STARLINK-3278,1 50830U 22001AD  22015.91668981 -.00923440  25417-3 -33229-2 0  9996,2 50830  53.2171 154.8250 0021422 208.7580 191.8671 15.87610698  2728,6687.121,90.702,323.311,294.661,0.0
50830.0,STARLINK-3278,PAYLOAD,2022-01-16 06:00:00,15.87007299,0.0018399,53.2172,153.1388,213.6528,292.7868,-0.0033079,-0.00887844,0.00023545,0 STARLINK-3278,1 50830U 22001AD  22016.25001157 -.00887844  23545-3 -33079-2 0  9990,2 50830  53.2172 153.1388 0018399 213.6528 292.7868 15.87007299  2770,6688.816,90.737,322.987,298.374,0.0
50830.0,STARLINK-3278,PAYLOAD,2022-01-16 14:00:01,15.86417782,0.0016078,53.2173,151.4577,219.5563,32.0529,-0.0033891,-0.0080808,0.0,0 STARLINK-3278,1 50830U 22001AD  22016.58334491 -.00808080  00000-0 -33891-2 0  9991,2 50830  53.2173 151.4577 0016078 219.5563  32.0529 15.86417782  2071,6690.473000000001,90.771,323.095,301.581,0.0
50830.0,STARLINK-3278,PAYLOAD,2022-01-16 22:00:00,15.85852011,0.0014164,53.2171,149.7768,227.0948,128.9719,-0.0036529,-0.00841338,0.0,0 STARLINK-3278,1 50830U 22001AD  22016.91667824 -.00841338  00000-0 -36529-2 0  9991,2 50830  53.2171 149.7768 0014164 227.0948 128.9719 15.85852011  2125,6692.064,90.803,323.407,304.45,0.0
50830.0,STARLINK-3278,PAYLOAD,2022-01-17 06:00:00,15.8525958,0.001177,53.2173,148.0947,237.02,222.8119,-0.0037222,-0.00830927,0.0,0 STARLINK-3278,1 50830U 22001AD  22017.25001157 -.00830927  00000-0 -37222-2 0  9993,2 50830  53.2173 148.0947 0011770 237.0200 222.8119 15.85259580  2939,6693.731,90.837,323.474,307.717,0.0
50830.0,STARLINK-3278,PAYLOAD,2022-01-17 14:00:01,15.84658046,0.0010206,53.2175,146.418,249.3726,313.5208,-0.0036976,-0.00802636,0.0,0 STARLINK-3278,1 50830U 22001AD  22017.58334491 -.00802636  00000-0 -36976-2 0  9990,2 50830  53.2175 146.4180 0010206 249.3726 313.5208 15.84658046  2233,6695.425,90.871,324.123,310.456,0.0
50830.0,STARLINK-3278,PAYLOAD,2022-01-17 22:00:00,15.84082938,0.0008975,53.2171,144.7411,260.9959,44.246,-0.0038925,-0.00819164,0.0,0 STARLINK-3278,1 50830U 22001AD  22017.91667824 -.00819164  00000-0 -38925-2 0  9996,2 50830  53.2171 144.7411 0008975 260.9959  44.2460 15.84082938  3032,6697.045,90.904,324.921,312.9,0.0
50830.0,STARLINK-3278,PAYLOAD,2022-01-18 14:00:01,15.82920897,0.0003827,53.2172,141.3913,271.3723,236.4607,-0.0042281,-0.0083645,0.0,0 STARLINK-3278,1 50830U 22001AD  22018.58334491 -.00836450  00000-0 -42281-2 0  9998,2 50830  53.2172 141.3913 0003827 271.3723 236.4607 15.82920897  3142,6700.321999999999,90.971,324.752,319.623,0.0
50830.0,STARLINK-3278,PAYLOAD,2022-01-18 22:00:00,15.82323437,0.0003939,53.2172,139.7185,226.8588,21.2192,-0.0042321999999999,-0.00815896,0.0,0 STARLINK-3278,1 50830U 22001AD  22018.91667824 -.00815896  00000-0 -42322-2 0  9991,2 50830  53.2172 139.7185 0003939 226.8588  21.2192 15.82323437  2440,6702.009,91.005,326.514,321.2340000000001,0.0
50830.0,STARLINK-3278,PAYLOAD,2022-01-19 14:00:01,15.81096453,0.0003697,53.2169,136.3773,269.47700000000003,177.0035,-0.0040956,-0.00750932,0.0,0 STARLINK-3278,1 50830U 22001AD  22019.58334491 -.00750932  00000-0 -40956-2 0  9996,2 50830  53.2169 136.3773 0003697 269.4770 177.0035 15.81096453  2551,6705.476,91.076,329.82,324.862,0.0
50830.0,STARLINK-3278,PAYLOAD,2022-01-19 22:00:00,15.80574005,0.0001448,53.2172,134.7091,256.4287,288.1447,-0.0046834,-0.00829518,0.0,0 STARLINK-3278,1 50830U 22001AD  22019.91667824 -.00829518  00000-0 -46834-2 0  9990,2 50830  53.2172 134.7091 0001448 256.4287 288.1447 15.80574005  3354,6706.953,91.106,329.79,327.847,0.0
50830.0,STARLINK-3278,PAYLOAD,2022-01-20 14:00:01,15.79399738,0.0001299,53.2174,131.3771,43.0705,335.6485,-0.0049078,-0.00823947,0.0,0 STARLINK-3278,1 50830U 22001AD  22020.58334491 -.00823947  00000-0 -49078-2 0  9999,2 50830  53.2174 131.3771 0001299  43.0705 335.6485 15.79399738  2718,6710.276999999999,91.174,333.014,331.271,0.0
50830.0,STARLINK-3278,PAYLOAD,2022-01-20 22:00:00,15.78813178,0.0001073,53.2174,129.7125,70.6926,44.0436,-0.0050323,-0.00822566,0.0,0 STARLINK-3278,1 50830U 22001AD  22020.91667824 -.00822566  00000-0 -50323-2 0  9996,2 50830  53.2174 129.7125 0001073  70.6926  44.0436 15.78813178  2763,6711.939,91.208,334.524,333.084,0.0
50830.0,STARLINK-3278,PAYLOAD,2022-01-21 08:00:01,15.78080855,0.0001117,53.2178,127.6335,63.2964,260.4707,-0.0051953999999999,-0.00821565,0.0,0 STARLINK-3278,1 50830U 22001AD  22021.33334491 -.00821565  00000-0 -51954-2 0  9993,2 50830  53.2178 127.6335 0001117  63.2964 260.4707 15.78080855  3579,6714.016,91.25,336.63,335.131,0.0
50830.0,STARLINK-3278,PAYLOAD,2022-01-21 14:00:01,15.77641056,0.0001318,53.2175,126.3895,49.8279,254.8289,-0.0053036,-0.00822191,0.0,0 STARLINK-3278,1 50830U 22001AD  22021.58334491 -.00822191  00000-0 -53036-2 0  9999,2 50830  53.2175 126.3895 0001318  49.8279 254.8289 15.77641056  2874,6715.263000000001,91.276,338.0130000000001,336.24300000000005,0.0
50830.0,STARLINK-3278,PAYLOAD,2022-01-21 22:00:00,15.77054876,0.0001033,53.2173,124.7292,61.8996,336.6618,-0.0054361,-0.00820872,0.0,0 STARLINK-3278,1 50830U 22001AD  22021.91667824 -.00820872  00000-0 -54361-2 0  9991,2 50830  53.2173 124.7292 0001033  61.8996 336.6618 15.77054876  2928,6716.927,91.309,339.486,338.098,0.0
